OBJECT_NAME,OBJECT_ID,EPOCH,MEAN_MOTION,ECCENTRICITY,INCLINATION,RA_OF_ASC_NODE,ARG_OF_PERICENTER,MEAN_ANOMALY,EPHEMERIS_TYPE,CLASSIFICATION_TYPE,NORAD_CAT_ID,ELEMENT_SET_NO,REV_AT_EPOCH,BSTAR,MEAN_MOTION_DOT,MEAN_MOTION_DDOT
COSMOS 2407,2004-028A,2026-06-26T03:55:17.918112,13.76335350,.0038112,82.9604,68.1861,225.9386,245.6754,0,U,28380,999,10111,.30198E-4,.45E-6,0
COSMOS 2414,2005-002A,2026-06-26T02:46:26.072256,13.87926949,.0038942,82.9493,36.8920,305.2235,54.5285,0,U,28521,999,8505,.27849E-4,.49E-6,0
INMARSAT 4-F1,2005-009A,2026-06-25T11:27:38.675808,1.00272513,.0002926,5.1798,42.7746,51.9837,168.8779,0,U,28628,999,7775,0,.38E-6,0
SJ-7,2005-024A,2026-06-25T23:14:37.821120,15.21667162,.0015403,97.7283,207.3081,8.2170,351.9314,0,U,28737,999,14936,.43248E-3,.974E-4,0
CUBESAT XI-V,2005-043F,2026-06-26T04:01:23.416032,14.72654217,.001426,98.2992,332.9782,172.0864,188.0570,0,U,28895,999,10307,.23083E-3,.142E-4,0
HINODE (SOLAR-B),2006-041A,2026-06-25T23:23:04.212384,14.68633887,.0015969,98.0544,192.9974,259.3200,100.6207,0,U,29479,999,5616,.12278E-3,.666E-5,0
SHIJIAN-6 02B (SJ-6 02B),2006-046B,2026-06-26T05:02:52.580256,15.01396984,.0015334,97.7163,206.2137,35.1005,325.1226,0,U,29506,999,7209,.10574E-3,.1306E-4,0
DMSP 5D-3 F17 (USA 191),2006-050A,2026-06-26T03:36:02.412288,14.14993944,.0010806,98.7378,183.5367,35.9970,324.1930,0,U,29522,999,1369,.38527E-4,.31E-6,0
LAPAN-TUBSAT,2007-001A,2026-06-26T03:25:51.217824,14.85956595,.001264,98.1344,176.5686,150.8452,209.3471,0,U,29709,999,5248,.46572E-4,.349E-5,0
HAIYANG-1B,2007-010A,2026-06-25T22:54:50.222016,14.31028992,.0013624,98.3498,158.4600,170.0353,190.1103,0,U,31113,999,189,.50799E-4,.92E-6,0
COSMO-SKYMED 2,2007-059A,2026-06-26T03:21:30.821184,14.82152133,.0001357,97.8888,0.6080,88.0987,272.0381,0,U,32376,999,333,.60939E-4,.433E-5,0
CARTOSAT-2A,2008-021A,2026-06-26T04:16:52.074336,14.79252641,.0013363,97.7634,225.5802,83.0508,277.2224,0,U,32783,999,98013,.16244E-3,.1159E-4,0
CUTE-1.7+APD II (CO-65),2008-021C,2026-06-26T03:09:22.056192,15.09532817,.0008876,97.8274,158.7363,11.8125,348.3310,0,U,32785,999,98654,.335E-3,.5311E-4,0
SEEDS II (CO-66),2008-021J,2026-06-25T22:45:21.317760,15.33033686,.0000427,97.7517,175.2655,222.9381,137.1827,0,U,32791,999,98863,.67552E-3,.21509E-3,0
YUBILEINY (RS30),2008-025A,2026-06-26T04:37:10.499232,12.43180016,.001858,82.5047,349.8376,293.2108,66.7015,0,U,32953,999,82081,.44185E-3,.71E-6,0
FENGYUN 3A,2008-026A,2026-06-25T17:12:11.856960,14.19572796,.0009859,98.6884,117.3905,101.6563,258.5720,0,U,32958,999,93661,.50621E-4,.64E-6,0
HUANJING 1A (HJ-1A),2008-041A,2026-06-26T04:50:15.514944,14.84008322,.0020574,97.6684,162.6915,106.9990,253.3481,0,U,33320,999,95974,.24042E-3,.1958E-4,0
HUANJING 1B (HJ-1B),2008-041B,2026-06-26T05:48:46.927584,14.83329134,.0036834,97.6520,165.8747,151.3833,208.9413,0,U,33321,999,95975,.66705E-4,.501E-5,0
SHIJIAN-6 03A (SJ-6 03A),2008-053A,2026-06-26T03:36:19.986048,15.17246058,.0010721,97.8412,210.7822,350.2795,9.8229,0,U,33408,999,96432,.2549E-3,.5006E-4,0
SHIJIAN-6 03B (SJ-6 03B),2008-053B,2026-06-26T05:06:11.149920,15.04324040,.0019745,97.8561,197.2533,14.3476,345.8306,0,U,33409,999,96410,.13535E-3,.1828E-4,0
CHUANGXIN 1-02 (CX-1-02),2008-056B,2026-06-26T04:23:10.871808,14.30154451,.0015392,98.6136,203.3599,111.7695,248.5127,0,U,33434,999,91990,.29547E-4,.33E-6,0
STARS (KUKAI),2009-002G,2026-06-25T20:21:59.542848,14.95799915,.0009379,98.1539,124.5107,135.1654,225.0325,0,U,33498,999,93977,.36459E-3,.4009E-4,0
